[{"OBJECT_NAME":"STARLINK-4760","OBJECT_ID":"2022-114L","EPOCH":"2026-03-09T21:28:08.566176","MEAN_MOTION":15.08832573,"ECCENTRICITY":0.00012852,"INCLINATION":53.2179,"RA_OF_ASC_NODE":303.1086,"ARG_OF_PERICENTER":87.2167,"MEAN_ANOMALY":272.8972,"EPHEMERIS_TYPE":0,"CLASSIFICATION_TYPE":"U","NORAD_CAT_ID":53828,"ELEMENT_SET_NO":999,"REV_AT_EPOCH":19286,"BSTAR":-2.5403247e-5,"MEAN_MOTION_DOT":-6.92e-6,"MEAN_MOTION_DDOT":0},{"OBJECT_NAME":"RAAF M1","OBJECT_ID":"2018-099X","EPOCH":"2026-03-09T15:51:10.230048","MEAN_MOTION":15.07065376,"ECCENTRICITY":0.00134971,"INCLINATION":97.4534,"RA_OF_ASC_NODE":114.8325,"ARG_OF_PERICENTER":21.6261,"MEAN_ANOMALY":338.5534,"EPHEMERIS_TYPE":0,"CLASSIFICATION_TYPE":"U","NORAD_CAT_ID":43779,"ELEMENT_SET_NO":999,"REV_AT_EPOCH":39714,"BSTAR":0.00026511092,"MEAN_MOTION_DOT":3.923e-5,"MEAN_MOTION_DDOT":0}]
